{
  "norad_id": 64839,
  "name": "KUIPER-00094",
  "history": [
    {
      "epoch": "2026-03-28T15:27:31.692384Z",
      "apogee_km": 557.3180537492908,
      "perigee_km": 548.4865234877325,
      "latitude_deg": 4.877947544053536e-05,
      "longitude_deg": 117.31028012991104,
      "height_km": 549.243903358969,
      "semi_major_axis_km": 6931.039288618511,
      "eccentricity": 0.0006371,
      "inclination_deg": 51.8882,
      "raan_deg": 175.2539,
      "arg_perigee_deg": 2.4075,
      "mean_anomaly_deg": 357.6928,
      "mean_motion_rev_day": 15.04545136
    },
    {
      "epoch": "2026-03-29T05:48:22.818528Z",
      "apogee_km": 557.3066335590638,
      "perigee_km": 548.3958778180204,
      "latitude_deg": 7.257789007101195e-05,
      "longitude_deg": -101.23975924694,
      "height_km": 549.1631006794927,
      "semi_major_axis_km": 6930.988255688542,
      "eccentricity": 0.00064282,
      "inclination_deg": 51.8884,
      "raan_deg": 172.5061,
      "arg_perigee_deg": 4.5455,
      "mean_anomaly_deg": 355.5576,
      "mean_motion_rev_day": 15.04561753
    }
  ]
}